#aV2024  4 23  0  0  0.00000000     288 DD+AD WGS84 FIT  NGA
## 2311 172800.00000000   300.00000000 60423 0.0000000000000
+   31     2  3  4  5  6  7  8  9 10 11 12 13 14 15 16 17 18
+         19 20 21 22 23 24 25 26 27 28 29 30 31 32  0  0  0
+          0  0  0  0  0  0  0  0  0  0  0  0  0  0  0  0  0
+          0  0  0  0  0  0  0  0  0  0  0  0  0  0  0  0  0
+          0  0  0  0  0  0  0  0  0  0  0  0  0  0  0  0  0
++         2  2  2  2  2  2  2  2  2  2  2  2  2  2  2  2  2
++         2  2  2  2  2  2  2  2  2  2  2  2  2  2  0  0  0
++         0  0  0  0  0  0  0  0  0  0  0  0  0  0  0  0  0
++         0  0  0  0  0  0  0  0  0  0  0  0  0  0  0  0  0
++         0  0  0  0  0  0  0  0  0  0  0  0  0  0  0  0  0
%c cc cc ccc ccc cccc cccc cccc cccc ccccc ccccc ccccc ccccc
%c cc cc ccc ccc cccc cccc cccc cccc ccccc ccccc ccccc ccccc
%f  0.0000000  0.000000000  0.00000000000  0.000000000000000
%f  0.0000000  0.000000000  0.00000000000  0.000000000000000
%i    0    0    0    0      0      0      0      0         0
%i    0    0    0    0      0      0      0      0         0
/*      NGA, ST. LOUIS,MO.                                  
/*   EPHEMERIS COMPUTED FROM 2 DAYS OF DATA                 
/*   EPOCHA v9 SMOOTHER                                     
/*   G2296 IERS2010 SATIGS SATAPC                           
*  2024  4 23  4 20  0.00000000
P  2 -14762.835429   4147.509620  22157.729082   -448.645430                    
V  2  -5029.968146 -26505.246525   1921.433888      0.065553                    
P  3 -23004.697975  11972.394626   5274.978724    325.711068                    
V  3   4394.557390  -5731.251415  31406.497836      0.207158                    
P  4 -21318.701590   1620.178148 -15826.880142    345.089906                    
V  4 -17149.481545 -10573.982200  21862.050559      0.086579                    
P  5  20183.447614   -672.141625 -17473.379670   -170.134588                    
V  5 -16248.123158  14579.688064 -19436.200717     -0.013882                    
P  6   5436.442147  25409.046236  -5138.397746    308.668167                    
V  6  -1400.928588   6741.063011  31579.471828     -0.184495                    
P  7  -6379.328283  22386.686013 -11832.495561   -113.376562                    
V  7  -4597.490964 -15655.032941 -26497.629376     -0.084015                    
P  8 -25276.824725  -5035.227158   7171.812710    138.312280                    
V  8  -7460.324558  -5887.562761 -29553.132208      0.222951                    
P  9 -10304.793363  11987.034393 -21429.471727    170.327786                    
V  9 -24658.122974 -11079.877933   5627.885743      0.137488                    
P 10   2227.079174 -17715.524068  19760.095868    -12.336897                    
V 10  20737.493184 -13435.213501 -14845.461636     -0.050662                    
P 11  11894.047083  17541.743866 -16016.976576   -643.877225                    
V 11   -819.686975  20406.915017  21661.566353     -0.101864                    
P 12  23881.013341  -9530.650437   6252.551786   -499.045131                    
V 12  -5667.302538   6677.096272  30494.857393     -0.034079                    
P 13  22741.921268  13929.169052    786.935424    644.954890                    
V 13   -204.317887   2613.564802 -31803.017234      0.030352                    
P 14  -6332.914105  19191.243176  17159.377081    383.175449                    
V 14 -19287.486868  10488.707844 -19081.903296      0.094541                    
P 15  25611.118760   2241.670804   6568.606835    151.377686                    
V 15   7695.280990   5720.267918 -29525.731871      0.040737                    
P 16 -18014.696554  -5044.448239 -19359.919800   -309.866409                    
V 16  19934.467347 -12889.177677 -15017.446001      0.095553                    
P 17   2948.804373  17344.586646  20270.139176    710.537047                    
V 17 -22396.447151 -10788.347419  12909.454817     -0.013011                    
P 18   6184.877863 -22938.743661 -11660.358042   -599.166611                    
V 18   3282.114204  14665.688539 -27266.568677     -0.064100                    
P 19  12701.449521  18724.635879  14029.067836    472.072998                    
V 19 -16366.963548  -7613.589361  24285.312776      0.053356                    
P 20  12737.731668   8812.146562 -21505.193598    379.178862                    
V 20 -18989.791155  19879.868303  -3240.771810     -0.013962                    
P 21 -15890.203276  -2620.527577  21704.853804    125.758858                    
V 21  -4818.886608 -25918.892978  -5800.373900     -0.022152                    
P 22   1129.090662  16507.948526  21255.745339     -3.489866                    
V 22 -22695.001976  12611.252705  -8477.550711     -0.055218                    
P 23  13647.932437 -19738.570965  11191.783275    207.716822                    
V 23  12591.407407  -6915.555620 -27796.146698      0.093749                    
P 24  15518.158701  -1816.262120  21074.711065   -462.428147                    
V 24   5291.536584  27322.624494  -1102.873783     -0.041646                    
P 25  20108.785911 -16999.582432  -2431.175204    494.348119                    
V 25   4152.324408   1066.548745  31507.927551      0.007822                    
P 26  -7947.428510 -13961.900657 -21271.367315    162.951907                    
V 26  20913.619325 -16787.413930   3595.429474     -0.052136                    
P 27 -22961.702723 -13313.515618  -3945.146926    -20.238974                    
V 27   5148.015858   -252.889456 -30993.901074     -0.021806                    
P 28  -5056.732972 -25961.267782  -2459.446074   -214.397043                    
V 28   2358.089144  -3433.980207  31567.917050     -0.154411                    
P 29  13410.953196  -9078.084698 -21125.727095   -600.981756                    
V 29  23021.813466  13430.093077   8758.494364      0.012812                    
P 30    881.296178  26300.982014  -2117.587459   -401.166534                    
V 30  -4091.649254  -2521.264292 -31207.618701      0.056471                    
P 31 -10434.740799 -20847.758988 -12558.965889   -227.974453                    
V 31   1538.355867 -15930.310695  25989.053948      0.000476                    
P 32  -7137.824046 -17595.304649  18863.911010   -618.337522                    
V 32  21933.176245   8375.314419  16096.797612     -0.002358                    
EOF
